[{"OBJECT_NAME":"STARLINK-34917","OBJECT_ID":"2025-175S","EPOCH":"2026-03-09T22:00:01.999584","MEAN_MOTION":15.05633082,"ECCENTRICITY":0.00022216,"INCLINATION":97.6024,"RA_OF_ASC_NODE":302.9089,"ARG_OF_PERICENTER":73.1727,"MEAN_ANOMALY":24.4203,"EPHEMERIS_TYPE":0,"CLASSIFICATION_TYPE":"U","NORAD_CAT_ID":65190,"ELEMENT_SET_NO":999,"REV_AT_EPOCH":579,"BSTAR":0.0015512338,"MEAN_MOTION_DOT":0.00022383,"MEAN_MOTION_DDOT":0},{"OBJECT_NAME":"COSMOS 886 DEB","OBJECT_ID":"1976-126BP","EPOCH":"2026-03-09T09:25:45.501600","MEAN_MOTION":13.48223291,"ECCENTRICITY":0.07109258,"INCLINATION":65.7793,"RA_OF_ASC_NODE":49.267,"ARG_OF_PERICENTER":88.0279,"MEAN_ANOMALY":57.007,"EPHEMERIS_TYPE":0,"CLASSIFICATION_TYPE":"U","NORAD_CAT_ID":14502,"ELEMENT_SET_NO":999,"REV_AT_EPOCH":14461,"BSTAR":0.00098756345,"MEAN_MOTION_DOT":2.959e-5,"MEAN_MOTION_DDOT":0}]
